STARLINK-37040          
1 69362U 26123K   26170.67269007  .00098327  00000+0  49482-3 0  9991
2 69362  53.1581 229.0177 0001686  68.9907 291.1296 15.80926572  2433
STARLINK-37582          
1 69363U 26123L   26170.83335647 -.00075873  00000+0 -49497-3 0  9993
2 69363  53.1585 228.5261 0001056  94.7331 308.3610 15.75250817  3589
STARLINK-37309          
1 69364U 26123M   26170.83335647  .00019090  00000+0  10012-3 0  9992
2 69364  53.1576 228.0932 0000821  92.2310 160.8230 15.80855981  3723
STARLINK-37436          
1 69365U 26123N   26170.83335647  .00006130  00000+0  34604-4 0  9998
2 69365  53.1577 228.0568 0001061  98.5997 172.0554 15.80855771  3728
STARLINK-37581          
1 69366U 26123P   26170.66316635  .00106501  00000+0  53526-3 0  9992
2 69366  53.1577 228.9534 0000991  94.5833 265.5303 15.80922991  2433
STARLINK-37683          
1 69367U 26123Q   26170.83335647 -.00084275  00000+0 -55057-3 0  9992
2 69367  53.1587 228.1493 0000697  80.4613 144.7312 15.75260760  3582
STARLINK-37687          
1 69368U 26123R   26170.83335647 -.00082304  00000+0 -41705-3 0  9999
2 69368  53.1578 228.0040 0001052  97.7132 198.3495 15.80892152  3582
STARLINK-37631          
1 69369U 26123S   26170.83335647 -.00087517  00000+0 -44386-3 0  9999
2 69369  53.1579 228.0132 0000999  79.7761 211.7716 15.80896913  3634
STARLINK-37673          
1 69370U 26123T   26170.52887071  .00167659  00000+0  83488-3 0  9990
2 69370  53.1574 229.5339 0001395  25.6334 334.4758 15.80917343  2418
STARLINK-37645          
1 69371U 26123U   26170.53074663  .00201241  00000+0  99541-3 0  9990
2 69371  53.1571 229.5463 0001073  56.5756 303.5369 15.80963084  2416
STARLINK-37688          
1 69372U 26123V   26170.52817026  .00099777  00000+0  50210-3 0  9997
2 69372  53.1569 229.5284 0001179 100.0241 260.0915 15.80921799  2417
STARLINK-37685          
1 69373U 26123W   26170.52766421  .00185041  00000+0  91793-3 0  9991
2 69373  53.1571 229.5247 0001320  70.7809 289.3357 15.80947728  2415
STARLINK-37632          
1 69374U 26123X   26170.52692010  .00207484  00000+0  10250-2 0  9998
2 69374  53.1571 229.5196 0000532  72.3595 287.7486 15.80972113  2414
STARLINK-37454          
1 69375U 26123Y   26170.52582690  .00112537  00000+0  56497-3 0  9999
2 69375  53.1571 229.5122 0001252  75.5873 284.5289 15.80924043  2413
STARLINK-37485          
1 69376U 26123Z   26170.52508599  .00157836  00000+0  78600-3 0  9997
2 69376  53.1571 229.5069 0000742  59.8641 300.2455 15.80946918  2411
STARLINK-37439          
1 69377U 26123AA  26170.58118974  .00150039  00000+0  74845-3 0  9993
2 69377  53.1574 229.1416 0001364  64.5188 295.5975 15.80934275  2424
STARLINK-37376          
1 69378U 26123AB  26170.83335647 -.00063930  00000+0 -41582-3 0  9997
2 69378  53.1593 227.9876 0001027  85.5389 216.9231 15.75250380  3722
STARLINK-37383          
1 69379U 26123AC  26170.57765863  .00137365  00000+0  68669-3 0  9993
2 69379  53.1574 229.1163 0001239  67.6541 292.4613 15.80929381  2420
STARLINK-37411          
1 69380U 26123AD  26170.58254680  .00168851  00000+0  83963-3 0  9994
2 69380  53.1573 229.1500 0001347  73.9165 286.2006 15.80944346  2423
STARLINK-37427          
1 69381U 26123AE  26170.57844395  .00135974  00000+0  67985-3 0  9998
2 69381  53.1574 229.1217 0001210  67.1932 292.9219 15.80930596  2428
QIANFAN-165             
1 69382U 26124A   26170.80089466  .00000058  00000+0  22161-4 0  9998
2 69382  88.9984   1.7446 0003151 115.8058 244.3455 14.16012669  2180
QIANFAN-166             
1 69383U 26124B   26170.79450894  .00000093  00000+0  39248-4 0  9997
2 69383  88.9985   1.7438 0002739 106.2919 253.8571 14.17059822  2181
QIANFAN-167             
1 69384U 26124C   26170.79566769  .00000055  00000+0  20577-4 0  9990
2 69384  88.9984   1.7438 0002203 152.4588 207.6718 14.16526236  2189
QIANFAN-168             
1 69385U 26124D   26170.78946861  .00000078  00000+0  31020-4 0  9995
2 69385  88.9984   1.7429 0003298 127.7356 232.4132 14.17873175  2187
QIANFAN-169             
1 69386U 26124E   26170.78633422  .00000083  00000+0  33426-4 0  9990
2 69386  88.9983   1.7424 0003403 145.5913 214.5497 14.18286774  2186
QIANFAN-170             
1 69387U 26124F   26170.78209466  .00000075  00000+0  28910-4 0  9991
2 69387  88.9983   1.7417 0003238 122.4978 237.6525 14.19183738  2185
QIANFAN-171             
1 69388U 26124G   26170.84799971  .00000376  00000+0  16989-3 0  9990
2 69388  88.9984   1.7329 0002269 169.6381 190.4856 14.20068256  2196
QIANFAN-172             
1 69389U 26124H   26170.77945897  .00000079  00000+0  30729-4 0  9992
2 69389  88.9984   1.7413 0002613 146.1017 214.0340 14.19638427  2181
QIANFAN-173             
1 69390U 26124J   26170.84586674  .00000080  00000+0  30597-4 0  9991
2 69390  88.9984   1.7327 0002950 136.5532 223.5891 14.20509866  2199
QIANFAN-174             
1 69391U 26124K   26170.84215515  .00000109  00000+0  43898-4 0  9995
2 69391  88.9984   1.7321 0003110 144.0804 216.0596 14.20878309  2199
