OBJECT_NAME,OBJECT_ID,EPOCH,MEAN_MOTION,ECCENTRICITY,INCLINATION,RA_OF_ASC_NODE,ARG_OF_PERICENTER,MEAN_ANOMALY,EPHEMERIS_TYPE,CLASSIFICATION_TYPE,NORAD_CAT_ID,ELEMENT_SET_NO,REV_AT_EPOCH,BSTAR,MEAN_MOTION_DOT,MEAN_MOTION_DDOT
STARLINK-37040,2026-123K,2026-06-19T16:08:40.422048,15.80926572,.0001686,53.1581,229.0177,68.9907,291.1296,0,U,69362,999,243,.49482E-3,.98327E-3,0
STARLINK-37582,2026-123L,2026-06-19T20:00:01.999008,15.75250817,.0001056,53.1585,228.5261,94.7331,308.3610,0,U,69363,999,358,-.49497E-3,-.75873E-3,0
STARLINK-37309,2026-123M,2026-06-19T20:00:01.999008,15.80855981,.0000821,53.1576,228.0932,92.2310,160.8230,0,U,69364,999,372,.10012E-3,.1909E-3,0
STARLINK-37436,2026-123N,2026-06-19T20:00:01.999008,15.80855771,.0001061,53.1577,228.0568,98.5997,172.0554,0,U,69365,999,372,.34604E-4,.613E-4,0
STARLINK-37581,2026-123P,2026-06-19T15:54:57.572640,15.80922991,.0000991,53.1577,228.9534,94.5833,265.5303,0,U,69366,999,243,.53526E-3,.106501E-2,0
STARLINK-37683,2026-123Q,2026-06-19T20:00:01.999008,15.75260760,.0000697,53.1587,228.1493,80.4613,144.7312,0,U,69367,999,358,-.55057E-3,-.84275E-3,0
STARLINK-37687,2026-123R,2026-06-19T20:00:01.999008,15.80892152,.0001052,53.1578,228.0040,97.7132,198.3495,0,U,69368,999,358,-.41705E-3,-.82304E-3,0
STARLINK-37631,2026-123S,2026-06-19T20:00:01.999008,15.80896913,.0000999,53.1579,228.0132,79.7761,211.7716,0,U,69369,999,363,-.44386E-3,-.87517E-3,0
STARLINK-37673,2026-123T,2026-06-19T12:41:34.429344,15.80917343,.00013956,53.1574,229.5339,25.6334,334.4758,0,U,69370,999,241,.83487791E-3,.167659E-2,0
STARLINK-37645,2026-123U,2026-06-19T12:44:16.508832,15.80963084,.00010734,53.1571,229.5463,56.5756,303.5369,0,U,69371,999,241,.99540512E-3,.201241E-2,0
STARLINK-37688,2026-123V,2026-06-19T12:40:33.910464,15.80921799,.00011797,53.1569,229.5284,100.0241,260.0915,0,U,69372,999,241,.50210315E-3,.99777E-3,0
STARLINK-37685,2026-123W,2026-06-19T12:39:50.187744,15.80947728,.00013206,53.1571,229.5247,70.7809,289.3357,0,U,69373,999,241,.91792875E-3,.185041E-2,0
STARLINK-37632,2026-123X,2026-06-19T12:38:45.896640,15.80972113,.00005328,53.1571,229.5196,72.3595,287.7486,0,U,69374,999,241,.10249872E-2,.207484E-2,0
STARLINK-37454,2026-123Y,2026-06-19T12:37:11.444160,15.80924043,.00012526,53.1571,229.5122,75.5873,284.5289,0,U,69375,999,241,.56497095E-3,.112537E-2,0
STARLINK-37485,2026-123Z,2026-06-19T12:36:07.429536,15.80946918,.00007424,53.1571,229.5069,59.8641,300.2455,0,U,69376,999,241,.78599863E-3,.157836E-2,0
STARLINK-37439,2026-123AA,2026-06-19T13:56:54.793536,15.80934275,.00013641,53.1574,229.1416,64.5188,295.5975,0,U,69377,999,242,.74845439E-3,.150039E-2,0
STARLINK-37376,2026-123AB,2026-06-19T20:00:01.999008,15.75250380,.0001027,53.1593,227.9876,85.5389,216.9231,0,U,69378,999,372,-.41582E-3,-.6393E-3,0
STARLINK-37383,2026-123AC,2026-06-19T13:51:49.705632,15.80929381,.00012394,53.1574,229.1163,67.6541,292.4613,0,U,69379,999,242,.68669076E-3,.137365E-2,0
STARLINK-37411,2026-123AD,2026-06-19T13:58:52.043520,15.80944346,.00013472,53.1573,229.1500,73.9165,286.2006,0,U,69380,999,242,.83962837E-3,.168851E-2,0
STARLINK-37427,2026-123AE,2026-06-19T13:52:57.557280,15.80930596,.00012103,53.1574,229.1217,67.1932,292.9219,0,U,69381,999,242,.67984818E-3,.135974E-2,0
QIANFAN-165,2026-124A,2026-06-19T19:13:17.298624,14.16012669,.0003151,88.9984,1.7446,115.8058,244.3455,0,U,69382,999,218,.22161E-4,.58E-6,0
QIANFAN-166,2026-124B,2026-06-19T19:04:05.572416,14.17059822,.0002739,88.9985,1.7438,106.2919,253.8571,0,U,69383,999,218,.39248E-4,.93E-6,0
QIANFAN-167,2026-124C,2026-06-19T19:05:45.688416,14.16526236,.0002203,88.9984,1.7438,152.4588,207.6718,0,U,69384,999,218,.20577E-4,.55E-6,0
QIANFAN-168,2026-124D,2026-06-19T18:56:50.087904,14.17873175,.0003298,88.9984,1.7429,127.7356,232.4132,0,U,69385,999,218,.3102E-4,.78E-6,0
QIANFAN-169,2026-124E,2026-06-19T18:52:19.276608,14.18286774,.0003403,88.9983,1.7424,145.5913,214.5497,0,U,69386,999,218,.33426E-4,.83E-6,0
QIANFAN-170,2026-124F,2026-06-19T18:46:12.978624,14.19183738,.0003238,88.9983,1.7417,122.4978,237.6525,0,U,69387,999,218,.2891E-4,.75E-6,0
QIANFAN-171,2026-124G,2026-06-19T20:21:07.174944,14.20068256,.0002269,88.9984,1.7329,169.6381,190.4856,0,U,69388,999,219,.16989E-3,.376E-5,0
QIANFAN-172,2026-124H,2026-06-19T18:42:25.255008,14.19638427,.0002613,88.9984,1.7413,146.1017,214.0340,0,U,69389,999,218,.30729E-4,.79E-6,0
QIANFAN-173,2026-124J,2026-06-19T20:18:02.886336,14.20509866,.000295,88.9984,1.7327,136.5532,223.5891,0,U,69390,999,219,.30597E-4,.8E-6,0
QIANFAN-174,2026-124K,2026-06-19T20:12:42.204960,14.20878309,.000311,88.9984,1.7321,144.0804,216.0596,0,U,69391,999,219,.43898E-4,.109E-5,0
